NORAD_CAT_ID,OBJECT_NAME,OBJECT_TYPE,EPOCH,MEAN_MOTION,ECCENTRICITY,INCLINATION,RA_OF_ASC_NODE,ARG_OF_PERICENTER,MEAN_ANOMALY,BSTAR,MEAN_MOTION_DOT,MEAN_MOTION_DDOT,TLE_LINE0,TLE_LINE1,TLE_LINE2,SEMIMAJOR_AXIS,PERIOD,APOGEE,PERIGEE,DECAYED
55756.0,STARLINK-5614,PAYLOAD,2023-11-22 20:16:00,14.98330263,0.0002715,69.9994,196.7751,268.5028,91.582,1.1546e-05,4.5e-07,0.0,0 STARLINK-5614,1 55756U 23028R   23326.84444830  .00000045  00000-0  11546-4 0  9994,2 55756  69.9994 196.7751 0002715 268.5028  91.5820 14.98330263 40545,6950.192,96.107,573.944,570.17,0.0
55756.0,STARLINK-5614,PAYLOAD,2023-11-23 01:04:24,14.98334731,0.0002668,69.9993,196.2709,266.5241,93.5613,2.7697e-05,2.38e-06,0.0,0 STARLINK-5614,1 55756U 23028R   23327.04472454  .00000238  00000-0  27697-4 0  9998,2 55756  69.9993 196.2709 0002668 266.5241  93.5613 14.98334731 40573,6950.178,96.107,573.898,570.189,0.0
55756.0,STARLINK-5614,PAYLOAD,2023-11-23 18:41:53,14.98325315,0.000249,70.0,194.4209,258.6569,101.4311,-1.5659e-05,-2.8e-06,0.0,0 STARLINK-5614,1 55756U 23028R   23327.77909097 -.00000280  00000-0 -15659-4 0  9990,2 55756  70.0000 194.4209 0002490 258.6569 101.4311 14.98325315 40682,6950.207,96.107,573.803,570.342,0.0
55756.0,STARLINK-5614,PAYLOAD,2023-11-23 21:54:09,14.98323221,0.0002533,70.0002,194.0845,258.7807,101.3068,-3.3191e-05,-4.89e-06,0.0,0 STARLINK-5614,1 55756U 23028R   23327.91261321 -.00000489  00000-0 -33191-4 0  9999,2 55756  70.0002 194.0845 0002533 258.7807 101.3068 14.98323221 40705,6950.214,96.107,573.839,570.318,0.0
55756.0,STARLINK-5614,PAYLOAD,2023-11-24 13:55:30,14.98325533,0.0002882,69.9985,192.3984,271.6697,88.4132,3.283e-05,2.99e-06,0.0,0 STARLINK-5614,1 55756U 23028R   23328.58021244  .00000299  00000-0  32830-4 0  9997,2 55756  69.9985 192.3984 0002882 271.6697  88.4132 14.98325533 40801,6950.207,96.107,574.075,570.069,0.0
55756.0,STARLINK-5614,PAYLOAD,2023-11-24 18:43:54,14.98330215,0.0002926,69.9987,191.8946,271.6661,88.4163,3.1275e-05,2.8e-06,0.0,0 STARLINK-5614,1 55756U 23028R   23328.78048986  .00000280  00000-0  31275-4 0  9993,2 55756  69.9987 191.8946 0002926 271.6661  88.4163 14.98330215 40835,6950.192,96.107,574.091,570.024,0.0
55756.0,STARLINK-5614,PAYLOAD,2023-11-24 21:56:10,14.98332109,0.000284,69.9988,191.5576,270.9965,89.0869,4.6079e-05,4.57e-06,0.0,0 STARLINK-5614,1 55756U 23028R   23328.91400833  .00000457  00000-0  46079-4 0  9995,2 55756  69.9988 191.5576 0002840 270.9965  89.0869 14.98332109 40852,6950.186,96.107,574.025,570.078,0.0
55756.0,STARLINK-5614,PAYLOAD,2023-11-25 13:57:30,14.98329886,0.0002798,69.9988,189.8742,273.8547,86.2292,0.00014476,1.635e-05,0.0,0 STARLINK-5614,1 55756U 23028R   23329.58160642  .00001635  00000-0  14476-3 0  9994,2 55756  69.9988 189.8742 0002798 273.8547  86.2292 14.98329886 40955,6950.193,96.107,574.003,570.114,0.0
55756.0,STARLINK-5614,PAYLOAD,2023-11-25 21:58:10,14.9833629,0.000271,69.9987,189.0323,274.012,86.0729,0.00021335,2.454e-05,0.0,0 STARLINK-5614,1 55756U 23028R   23329.91540092  .00002454  00000-0  21335-3 0  9994,2 55756  69.9987 189.0323 0002710 274.0120  86.0729 14.98336290 41002,6950.173,96.107,573.922,570.155,0.0
55756.0,STARLINK-5614,PAYLOAD,2023-11-26 01:10:26,14.98341684,0.0002678,69.999,188.696,274.0846,86.0006,0.00027023,3.134e-05,0.0,0 STARLINK-5614,1 55756U 23028R   23330.04891587  .00003134  00000-0  27023-3 0  9994,2 55756  69.9990 188.6960 0002678 274.0846  86.0006 14.98341684 41029,6950.157,96.106,573.883,570.161,0.0
55756.0,STARLINK-5614,PAYLOAD,2023-11-26 18:47:56,14.98328399,0.0002738,69.9991,186.8448,266.4191,93.6654,-2.3918e-05,-3.78e-06,0.0,0 STARLINK-5614,1 55756U 23028R   23330.78328980 -.00000378  00000-0 -23918-4 0  9996,2 55756  69.9991 186.8448 0002738 266.4191  93.6654 14.98328399 41139,6950.198,96.107,573.966,570.16,0.0
55756.0,STARLINK-5614,PAYLOAD,2023-11-26 22:00:12,14.98326697,0.0002571,69.9999,186.509,256.3835,103.7038,-3.8795e-05,-5.56e-06,0.0,0 STARLINK-5614,1 55756U 23028R   23330.91681064 -.00000556  00000-0 -38795-4 0  9993,2 55756  69.9999 186.5090 0002571 256.3835 103.7038 14.98326697 41155,6950.203,96.107,573.855,570.281,0.0
55756.0,STARLINK-5614,PAYLOAD,2023-11-26 23:36:20,14.98326618,0.000258,69.9995,186.3402,256.0863,104.0009,-5.4508e-05,-7.43e-06,0.0,0 STARLINK-5614,1 55756U 23028R   23330.98357138 -.00000743  00000-0 -54508-4 0  9990,2 55756  69.9995 186.3402 0002580 256.0863 104.0009 14.98326618 41160,6950.203,96.107,573.862,570.275,0.0
55756.0,STARLINK-5614,PAYLOAD,2023-11-27 18:49:57,14.98329855,0.0002667,69.9992,184.3199,266.2179,93.8676,-4.7812e-05,-6.63e-06,0.0,0 STARLINK-5614,1 55756U 23028R   23331.78468983 -.00000663  00000-0 -47812-4 0  9991,2 55756  69.9992 184.3199 0002667 266.2179  93.8676 14.98329855 41281,6950.193,96.107,573.912,570.205,0.0
55756.0,STARLINK-5614,PAYLOAD,2023-11-27 22:02:13,14.98332908,0.0002653,69.9989,183.9828,264.5703,95.5153,-2.734e-05,-4.19e-06,0.0,0 STARLINK-5614,1 55756U 23028R   23331.91820705 -.00000419  00000-0 -27340-4 0  9993,2 55756  69.9989 183.9828 0002653 264.5703  95.5153 14.98332908 41305,6950.184,96.107,573.893,570.205,0.0
55756.0,STARLINK-5614,PAYLOAD,2023-11-28 14:03:33,14.98325746,0.0002748,69.9989,182.2986,264.4419,95.6426,0.00011994,1.338e-05,0.0,0 STARLINK-5614,1 55756U 23028R   23332.58580737  .00001338  00000-0  11994-3 0  9991,2 55756  69.9989 182.2986 0002748 264.4419  95.6426 14.98325746 41407,6950.206,96.107,573.981,570.161,0.0
55756.0,STARLINK-5614,PAYLOAD,2023-11-28 20:28:05,14.98327632,0.0002731,69.9993,181.6255,257.8964,102.1889,0.00013843,1.559e-05,0.0,0 STARLINK-5614,1 55756U 23028R   23332.85284622  .00001559  00000-0  13843-3 0  9995,2 55756  69.9993 181.6255 0002731 257.8964 102.1889 14.98327632 41444,6950.2,96.107,573.963,570.167,0.0
55756.0,STARLINK-5614,PAYLOAD,2023-11-28 23:40:22,14.98328635,0.0002828,69.999,181.2887,264.7036,95.3801,0.00013648,1.536e-05,0.0,0 STARLINK-5614,1 55756U 23028R   23332.98636609  .00001536  00000-0  13648-3 0  9993,2 55756  69.9990 181.2887 0002828 264.7036  95.3801 14.98328635 41465,6950.197,96.107,574.028,570.097,0.0
55756.0,STARLINK-5614,PAYLOAD,2023-11-29 23:42:22,14.98332853,0.000282,69.9991,178.7639,264.1026,95.9811,8.1428e-05,8.79e-06,0.0,0 STARLINK-5614,1 55756U 23028R   23333.98776491  .00000879  00000-0  81428-4 0  9999,2 55756  69.9991 178.7639 0002820 264.1026  95.9811 14.98332853 41618,6950.184,96.107,574.009,570.089,0.0
55756.0,STARLINK-5614,PAYLOAD,2023-11-30 23:44:23,14.98331524,0.0002826,69.9991,176.2395,264.5589,95.5248,2.1409e-05,1.62e-06,0.0,0 STARLINK-5614,1 55756U 23028R   23334.98916638  .00000162  00000-0  21409-4 0  9997,2 55756  69.9991 176.2395 0002826 264.5589  95.5248 14.98331524 41764,6950.188,96.107,574.017,570.089,0.0
55756.0,STARLINK-5614,PAYLOAD,2023-12-01 22:10:16,14.98339021,0.0002808,69.9987,173.8838,259.0426,101.0417,0.00010123,1.115e-05,0.0,0 STARLINK-5614,1 55756U 23028R   23335.92379814  .00001115  00000-0  10123-3 0  9990,2 55756  69.9987 173.8838 0002808 259.0426 101.0417 14.98339021 41900,6950.165,96.106,573.982,570.078,0.0
55756.0,STARLINK-5614,PAYLOAD,2023-12-01 23:46:24,14.98337914,0.0002754,69.9989,173.7157,260.3193,99.7655,9.254e-05,1.012e-05,0.0,0 STARLINK-5614,1 55756U 23028R   23335.99055900  .00001012  00000-0  92540-4 0  9994,2 55756  69.9989 173.7157 0002754 260.3193  99.7655 14.98337914 41918,6950.168,96.106,573.947,570.119,0.0
55756.0,STARLINK-5614,PAYLOAD,2023-12-02 14:11:36,14.98353581,0.0002402,69.999,172.2011,255.5952,104.494,-0.00030661,-3.752e-05,0.0,0 STARLINK-5614,1 55756U 23028R   23336.59139956 -.00003752  00000-0 -30661-3 0  9995,2 55756  69.9990 172.2011 0002402 255.5952 104.4940 14.98353581 42002,6950.12,96.105,573.654,570.316,0.0
55756.0,STARLINK-5614,PAYLOAD,2023-12-02 19:00:01,14.98334985,0.0002471,69.9988,171.6962,252.3526,107.7363,-3.0421e-05,-4.56e-06,0.0,0 STARLINK-5614,1 55756U 23028R   23336.79168214 -.00000456  00000-0 -30421-4 0  9999,2 55756  69.9988 171.6962 0002471 252.3526 107.7363 14.98334985 42030,6950.177,96.107,573.76,570.325,0.0
55756.0,STARLINK-5614,PAYLOAD,2023-12-02 22:12:17,14.98328695,0.0002695,69.999,171.3598,252.2687,107.8178,5.7491e-05,5.93e-06,0.0,0 STARLINK-5614,1 55756U 23028R   23336.92520314  .00000593  00000-0  57491-4 0  9993,2 55756  69.9990 171.3598 0002695 252.2687 107.8178 14.98328695 42058,6950.197,96.107,573.935,570.189,0.0
55756.0,STARLINK-5614,PAYLOAD,2023-12-03 14:13:38,14.9833013,0.0002426,69.9994,169.6764,246.3521,113.7384,-5.94e-06,-1.64e-06,0.0,0 STARLINK-5614,1 55756U 23028R   23337.59280407 -.00000164  00000-0 -59400-5 0  9992,2 55756  69.9994 169.6764 0002426 246.3521 113.7384 14.98330130 42153,6950.192,96.107,573.744,570.371,0.0
55756.0,STARLINK-5614,PAYLOAD,2023-12-03 20:38:10,14.98327192,0.0002612,69.9988,169.0026,254.6849,105.4021,-5.8344e-05,-7.89e-06,0.0,0 STARLINK-5614,1 55756U 23028R   23337.85984775 -.00000789  00000-0 -58344-4 0  9998,2 55756  69.9988 169.0026 0002612 254.6849 105.4021 14.98327192 42197,6950.202,96.107,573.882,570.251,0.0
55756.0,STARLINK-5614,PAYLOAD,2023-12-04 12:39:31,14.98325505,0.0002717,69.9982,167.3172,262.5014,97.5836,3.3514e-05,3.07e-06,0.0,0 STARLINK-5614,1 55756U 23028R   23338.52744735  .00000307  00000-0  33514-4 0  9999,2 55756  69.9982 167.3172 0002717 262.5014  97.5836 14.98325505 42294,6950.207,96.107,573.96,570.183,0.0
55756.0,STARLINK-5614,PAYLOAD,2023-12-05 12:41:32,14.98327298,0.0002824,69.9981,164.7928,265.129,94.9547,9.9813e-05,1.098e-05,0.0,0 STARLINK-5614,1 55756U 23028R   23339.52884576  .00001098  00000-0  99813-4 0  9990,2 55756  69.9981 164.7928 0002824 265.1290  94.9547 14.98327298 42445,6950.201,96.107,574.029,570.104,0.0
55756.0,STARLINK-5614,PAYLOAD,2023-12-06 12:43:33,14.98330496,0.0002778,69.9984,162.269,265.9953,94.0889,2.5045e-05,2.06e-06,0.0,0 STARLINK-5614,1 55756U 23028R   23340.53024491  .00000206  00000-0  25045-4 0  9991,2 55756  69.9984 162.2690 0002778 265.9953  94.0889 14.98330496 42599,6950.191,96.107,573.987,570.126,0.0
